#aV2007  8 27  0  0   .00000000      96 DD+AD WGS84 FIT  NGA
## 1442  86400.00000000   900.00000000 54339  .0000000000000
+   31     1  2  3  4  5  6  7  8  9 10 11 12 13 14 16 17 18
+         19 20 21 22 23 24 25 26 27 28 29 30 31 32  0  0  0
+          0  0  0  0  0  0  0  0  0  0  0  0  0  0  0  0  0
+          0  0  0  0  0  0  0  0  0  0  0  0  0  0  0  0  0
+          0  0  0  0  0  0  0  0  0  0  0  0  0  0  0  0  0
++         0  0  0  0  0  0  0  0  0  0  0  0  0  0  0  0  0
++         0  0  0  0  0  0  0  0  0  0  0  0  0  0  0  0  0
++         0  0  0  0  0  0  0  0  0  0  0  0  0  0  0  0  0
++         0  0  0  0  0  0  0  0  0  0  0  0  0  0  0  0  0
++         0  0  0  0  0  0  0  0  0  0  0  0  0  0  0  0  0
%c cc cc ccc ccc cccc cccc cccc cccc ccccc ccccc ccccc ccccc
%c cc cc ccc ccc cccc cccc cccc cccc ccccc ccccc ccccc ccccc
%f  0.0000000  0.000000000  0.00000000000  0.000000000000000
%f  0.0000000  0.000000000  0.00000000000  0.000000000000000
%i    0    0    0    0      0      0      0      0         0
%i    0    0    0    0      0      0      0      0         0
/*      NGA, ST. LOUIS,MO.                                  
/*   EPHEMERIS COMPUTED FROM  3 DAYS OF DATA                
/* CCCCCCCCCCCCCCCCCCCCCCCCCCCCCCCCCCCCCCCCCCCCCCCCCCCCCCCCC
/* CCCCCCCCCCCCCCCCCCCCCCCCCCCCCCCCCCCCCCCCCCCCCCCCCCCCCCCCC
*  2007  8 27 16 30   .00000000                                                 
P  1  13857.469620 -19390.495620  11844.509596    148.738424                    
V  1  12889.262763  -7241.169058 -27491.507488       .024642                    
P  2   -783.696409  15999.872365  21028.248343    132.145864                    
V  2 -25504.121071  -9385.018732   5833.755503       .027594                    
P  3   4364.698298 -20848.708496 -15872.276053    107.350234                    
V  3  16281.913950 -11941.585717  20790.993820       .053417                    
P  4 -14232.638845   9898.057938  20142.546065     -1.182446                    
V  4 -23377.091516 -10715.341342 -10858.551320      -.025679                    
P  5  15267.365624  14924.980945  15640.602456    333.185495                    
V  5   2427.437246  20303.598065 -21251.449307       .367669                    
P  6  20813.434955  -1613.536817  16628.540983    246.758731                    
V  6 -14369.592762  15250.237639  19655.961063       .004279                    
P  7  21460.911920  -3923.443320  15522.919772    -53.472305                    
V  7 -12637.527182  14591.492938  21597.905178     -1.050729                    
P  8 -21175.475611   2390.778343 -16251.582638   -120.499285                    
V  8 -17905.695473  -9439.426096  21651.049537      -.015145                    
P  9  18989.083849  15167.917805 -11554.903391     85.059441                    
V  9 -13529.641054  -2727.995408 -27081.933163       .016832                    
P 10    457.928431  26076.473609   3902.521509     90.683761                    
V 10  -3435.214259  -4760.918269  31603.543590      -.665623                    
P 11 -21479.432288 -12533.027374  -9847.734861     22.820846                    
V 11  12969.534664  -1487.364981 -26398.842571       .005677                    
P 12  11540.911683  20760.929928  12049.511265    -54.124867                    
V 12     -6.163080  15288.013501 -26480.727489      -.013014                    
P 13 -20596.351821   1743.896064  16557.253875    201.701427                    
V 13  16381.509315 -13461.485515  21678.868262       .030445                    
P 14  21295.700586 -15777.195245   -379.137846     37.914541                    
V 14    740.235951   1952.035776 -32425.380578       .021637                    
P 16   3397.259625 -24529.093612   9456.925371    172.014760                    
V 16   4081.327148  11514.027929  28782.745080       .023355                    
P 17 -21791.143666  14861.789001  -2383.077888     56.462986                    
V 17    601.180159  -4209.922042 -31633.417458      -.012159                    
P 18  15476.807602   1369.987932 -21410.258604   -238.824194                    
V 18   2714.538687  27425.487200   3341.840398       .016073                    
P 19  -4741.150439 -14949.787244 -21319.714207     61.198280                    
V 19  22829.324153 -15042.373451   5582.067726       .025897                    
P 20 -13324.034931 -17752.469139  14509.419601    -28.724177                    
V 20   -659.326588 -18742.152454 -23340.154374      -.005573                    
P 21  25235.075064   4697.793907  -7772.078320     78.538666                    
V 21   7989.097525   6556.748578  28775.310759      -.001482                    
P 22  12353.115191 -13550.003364 -19040.988886    195.828151                    
V 22   3949.398138  24295.803062 -14648.931800       .014290                    
P 23 -14405.205163  -7036.227779  21136.619674    195.223389                    
V 23  20803.206790 -17136.582278   8220.457240       .037644                    
P 24  22870.675918  12873.425374   3085.143941     25.966148                    
V 24  -4712.814897   1380.828004  31483.369984       .028562                    
P 25 -25497.363523  -7091.076515   -435.569727    421.286273                    
V 25   -120.781268  -3132.518364  31839.324232       .120495                    
P 26   1112.035571  16337.629516 -21227.329606      6.314554                    
V 26 -21419.416249  14723.358851  10970.302625       .138346                    
P 27 -25296.546027  -2997.839922  -7248.869242    131.391713                    
V 27  -8744.970289  -5488.346322  29890.818864       .023518                    
P 28 -13214.479985   9635.582433 -20512.571203     -5.780370                    
V 28  -4324.428068 -26578.873530  -9880.272865      -.006842                    
P 29  -3535.881465  18312.954064 -18547.780336      5.319428                    
V 29 -19680.530208  13872.387742  17639.084996       .002006                    
P 30  15698.757844   8930.204347  19187.595747     43.811472                    
V 30   3145.264712  24912.035681 -13827.724079       .012338                    
P 31  10516.395775 -11917.240449  21485.464512     11.488245                    
V 31  24774.360266  10241.878402  -6434.369983      -.012224                    
P 32   5925.478279 -23350.842376 -10856.940878     31.873835                    
V 32   3041.567498  14270.165257 -27708.463969       .178400                    
EOF
